[{"OBJECT_NAME":"STARLINK-3526","OBJECT_ID":"2022-016G","EPOCH":"2026-03-09T23:36:02.922624","MEAN_MOTION":15.08834081,"ECCENTRICITY":0.00011494,"INCLINATION":53.2176,"RA_OF_ASC_NODE":327.7746,"ARG_OF_PERICENTER":88.8822,"MEAN_ANOMALY":271.2302,"EPHEMERIS_TYPE":0,"CLASSIFICATION_TYPE":"U","NORAD_CAT_ID":51720,"ELEMENT_SET_NO":999,"REV_AT_EPOCH":22346,"BSTAR":0.00013886738,"MEAN_MOTION_DOT":1.923e-5,"MEAN_MOTION_DDOT":0},{"OBJECT_NAME":"MINOTAUR 4 R\/B","OBJECT_ID":"2020-046E","EPOCH":"2026-03-09T23:21:28.488960","MEAN_MOTION":15.06543892,"ECCENTRICITY":0.00095926,"INCLINATION":53.9792,"RA_OF_ASC_NODE":306.0413,"ARG_OF_PERICENTER":86.078,"MEAN_ANOMALY":274.1318,"EPHEMERIS_TYPE":0,"CLASSIFICATION_TYPE":"U","NORAD_CAT_ID":45877,"ELEMENT_SET_NO":999,"REV_AT_EPOCH":23396,"BSTAR":0.00016618262,"MEAN_MOTION_DOT":2.204e-5,"MEAN_MOTION_DDOT":0}]
